OBJECT B                
1 51825U 22019B   25084.92000806  .00037294  00000+0  10466-2 0  9992
2 51825  97.3918 160.9770 0009765 323.1248  36.9324 15.36422531170265
